NORAD_CAT_ID,OBJECT_NAME,OBJECT_TYPE,EPOCH,MEAN_MOTION,ECCENTRICITY,INCLINATION,RA_OF_ASC_NODE,ARG_OF_PERICENTER,MEAN_ANOMALY,BSTAR,MEAN_MOTION_DOT,MEAN_MOTION_DDOT,TLE_LINE0,TLE_LINE1,TLE_LINE2,SEMIMAJOR_AXIS,PERIOD,APOGEE,PERIGEE,DECAYED
53280.0,STARLINK-4169,PAYLOAD,2022-08-31 12:00:00,15.73249681,0.000266,53.2173,215.4366,18.2262,188.0427,-0.00023964,-0.00034196,0.0,0 STARLINK-4169,1 53280U 22086AQ  22243.50001157 -.00034196  00000-0 -23964-3 0  9990,2 53280  53.2173 215.4366 0002660  18.2262 188.0427 15.73249681  6601,6727.754,91.53,351.408,347.829,0.0
53280.0,STARLINK-4169,PAYLOAD,2022-08-31 14:00:01,15.73272494,0.0002601,53.2175,215.0236,17.9166,300.588,-0.00073927,-0.00103448,0.0,0 STARLINK-4169,1 53280U 22086AQ  22243.58334491 -.00103448  00000-0 -73927-3 0  9999,2 53280  53.2175 215.0236 0002601  17.9166 300.5880 15.73272494  1303,6727.688,91.529,351.30300000000005,347.80400000000014,0.0
53280.0,STARLINK-4169,PAYLOAD,2022-08-31 22:00:00,15.73217097,0.0002514,53.2176,213.3731,20.9396,26.5365,-0.00031654,-0.0004485,0.0,0 STARLINK-4169,1 53280U 22086AQ  22243.91667824 -.00044850  00000-0 -31654-3 0  9997,2 53280  53.2176 213.3731 0002514  20.9396  26.5365 15.73217097  1308,6727.846,91.532,351.403,348.02,0.0
53280.0,STARLINK-4169,PAYLOAD,2022-09-01 04:00:01,15.73179873,0.0002703999999999,53.2172,212.1376,22.1615,2.0862,-0.00021853,-0.00031157,0.0,0 STARLINK-4169,1 53280U 22086AQ  22244.16668981 -.00031157  00000-0 -21853-3 0  9996,2 53280  53.2172 212.1376 0002704  22.1615   2.0862 15.73179873  6715,6727.953,91.534,351.63699999999994,347.99800000000016,0.0
53280.0,STARLINK-4169,PAYLOAD,2022-09-01 14:00:01,15.73203391,0.0002656,53.2167,210.0753,24.1932,201.1753,-3.394e-05,-5.384e-05,0.0,0 STARLINK-4169,1 53280U 22086AQ  22244.58335648 -.00005384  00000-0 -33940-4 0  9997,2 53280  53.2167 210.0753 0002656  24.1932 201.1753 15.73203391  6775,6727.886,91.533,351.537,347.964,0.0
53280.0,STARLINK-4169,PAYLOAD,2022-09-01 22:00:00,15.73216024,0.000247,53.217,208.425,26.6551,287.5733,0.00029779,0.00041411,0.0,0 STARLINK-4169,1 53280U 22086AQ  22244.91667824  .00041411  00000-0  29779-3 0  9991,2 53280  53.2170 208.4250 0002470  26.6551 287.5733 15.73216024  1307,6727.849,91.532,351.376,348.05300000000005,0.0
53280.0,STARLINK-4169,PAYLOAD,2022-09-02 06:00:00,15.73226625,0.0002634999999999,53.2171,206.7777,21.5367,21.6578,-0.00040018,-0.00056483,0.0,0 STARLINK-4169,1 53280U 22086AQ  22245.25001157 -.00056483  00000-0 -40018-3 0  9996,2 53280  53.2171 206.7777 0002635  21.5367  21.6578 15.73226625  6885,6727.819,91.532,351.457,347.911,0.0
53280.0,STARLINK-4169,PAYLOAD,2022-09-02 14:00:01,15.73203362,0.0002484999999999,53.2171,205.1269,16.1789,115.9584,-0.00057415,-0.00080459,0.0,0 STARLINK-4169,1 53280U 22086AQ  22245.58334491 -.00080459  00000-0 -57415-3 0  9991,2 53280  53.2171 205.1269 0002485  16.1789 115.9584 15.73203362  1304,6727.886,91.533,351.422,348.079,0.0
53280.0,STARLINK-4169,PAYLOAD,2022-09-02 20:00:01,15.7313587,0.000234,53.217,203.889,17.8494,90.9666,0.0004844999999999,0.00067744,0.0,0 STARLINK-4169,1 53280U 22086AQ  22245.83334491  .00067744  00000-0  48450-3 0  9998,2 53280  53.2170 203.8890 0002340  17.8494  90.9666 15.73135870  6978,6728.078,91.537,351.517,348.369,0.0
53280.0,STARLINK-4169,PAYLOAD,2022-09-02 22:00:01,15.7316141,0.0002342,53.2171,203.4769,18.589,202.5023,0.0002728999999999,0.00037791,0.0,0 STARLINK-4169,1 53280U 22086AQ  22245.91668981  .00037791  00000-0  27290-3 0  9999,2 53280  53.2171 203.4769 0002342  18.5890 202.5023 15.73161410  1309,6728.005,91.535,351.446,348.2940000000001,0.0
53280.0,STARLINK-4169,PAYLOAD,2022-09-03 14:00:01,15.73228443,0.0002394,53.2161,200.1787,18.4835,20.3723,0.00018383,0.00025289,0.0,0 STARLINK-4169,1 53280U 22086AQ  22246.58334491  .00025289  00000-0  18383-3 0  9991,2 53280  53.2161 200.1787 0002394  18.4835  20.3723 15.73228443  1300,6727.814,91.532,351.29,348.0680000000001,0.0
53280.0,STARLINK-4169,PAYLOAD,2022-09-03 22:00:00,15.732924300000002,0.0002261,53.2164,198.5287,20.092,107.7281,-0.00039179,-0.0005547,0.0,0 STARLINK-4169,1 53280U 22086AQ  22246.91667824 -.00055470  00000-0 -39179-3 0  9990,2 53280  53.2164 198.5287 0002261  20.0920 107.7281 15.73292430  1301,6727.632,91.528,351.01800000000014,347.976,0.0
53280.0,STARLINK-4169,PAYLOAD,2022-09-04 12:00:00,15.73293559,0.0002435,53.2163,195.6429,17.0784,176.5013,-0.00089466,-0.00124856,0.0,0 STARLINK-4169,1 53280U 22086AQ  22247.50001157 -.00124856  00000-0 -89466-3 0  9996,2 53280  53.2163 195.6429 0002435  17.0784 176.5013 15.73293559  7231,6727.628000000002,91.528,351.13199999999995,347.855,0.0
53280.0,STARLINK-4169,PAYLOAD,2022-09-04 14:00:01,15.73261392,0.0002352,53.2165,195.2298,18.7124,287.1948,-0.00054141,-0.00076131,0.0,0 STARLINK-4169,1 53280U 22086AQ  22247.58335648 -.00076131  00000-0 -54141-3 0  9993,2 53280  53.2165 195.2298 0002352  18.7124 287.1948 15.73261392  1305,6727.72,91.53,351.168,348.00300000000016,0.0
53280.0,STARLINK-4169,PAYLOAD,2022-09-04 16:00:00,15.73220594,0.0002283,53.2165,194.8171,18.9091,39.1894,-5.4245e-05,-8.235e-05,0.0,0 STARLINK-4169,1 53280U 22086AQ  22247.66667824 -.00008235  00000-0 -54245-4 0  9992,2 53280  53.2165 194.8171 0002283  18.9091  39.1894 15.73220594  7263,6727.8359999999975,91.532,351.237,348.165,0.0
53280.0,STARLINK-4169,PAYLOAD,2022-09-04 20:00:01,15.7322084,0.0002271,53.2164,193.992,21.8284,260.7457,-0.00015743,-0.00022679,0.0,0 STARLINK-4169,1 53280U 22086AQ  22247.83334491 -.00022679  00000-0 -15743-3 0  9999,2 53280  53.2164 193.9920 0002271  21.8284 260.7457 15.73220840  1308,6727.8359999999975,91.532,351.22900000000016,348.173,0.0
53280.0,STARLINK-4169,PAYLOAD,2022-09-05 14:00:01,15.73216146,0.0002245,53.2158,190.2811,17.6979,195.0243,-0.00036861,-0.00052076,0.0,0 STARLINK-4169,1 53280U 22086AQ  22248.58334491 -.00052076  00000-0 -36861-3 0  9990,2 53280  53.2158 190.2811 0002245  17.6979 195.0243 15.73216146  1302,6727.849,91.532,351.225,348.204,0.0
53280.0,STARLINK-4169,PAYLOAD,2022-09-05 20:00:01,15.73199834,0.0002086999999999,53.2159,189.0435,18.5521,170.8669,-0.00045445,-0.00063923,0.0,0 STARLINK-4169,1 53280U 22086AQ  22248.83334491 -.00063923  00000-0 -45445-3 0  9999,2 53280  53.2159 189.0435 0002087  18.5521 170.8669 15.73199834  7446,6727.896,91.533,351.165,348.357,0.0
53280.0,STARLINK-4169,PAYLOAD,2022-09-05 22:00:00,15.73202849,0.0002126999999999,53.2161,188.6316,16.7942,284.8499,-0.00076014,-0.00105993,0.0,0 STARLINK-4169,1 53280U 22086AQ  22248.91667824 -.00105993  00000-0 -76014-3 0  9997,2 53280  53.2161 188.6316 0002127  16.7942 284.8499 15.73202849  1301,6727.887,91.533,351.18300000000005,348.321,0.0
53280.0,STARLINK-4169,PAYLOAD,2022-09-06 14:00:01,15.73109084,0.000217,53.2165,185.333,13.6279,105.726,0.00043726,0.00060957,0.0,0 STARLINK-4169,1 53280U 22086AQ  22249.58334491  .00060957  00000-0  43726-3 0  9994,2 53280  53.2165 185.3330 0002170  13.6279 105.7260 15.73109084  1306,6728.154,91.538,351.47900000000016,348.559,0.0
53280.0,STARLINK-4169,PAYLOAD,2022-09-06 20:00:01,15.73145564,0.000212,53.2166,184.0956,18.2517,77.7266,0.00050687,0.00070956,0.0,0 STARLINK-4169,1 53280U 22086AQ  22249.83334491  .00070956  00000-0  50687-3 0  9996,2 53280  53.2166 184.0956 0002120  18.2517  77.7266 15.73145564  7604,6728.05,91.536,351.342,348.48900000000015,0.0
53280.0,STARLINK-4169,PAYLOAD,2022-09-06 22:00:00,15.73162383,0.0002182,53.2166,183.6838,17.3651,190.8175,0.00023848,0.00032928,0.0,0 STARLINK-4169,1 53280U 22086AQ  22249.91667824  .00032928  00000-0  23848-3 0  9990,2 53280  53.2166 183.6838 0002182  17.3651 190.8175 15.73162383  1300,6728.002,91.535,351.335,348.399,0.0
53280.0,STARLINK-4169,PAYLOAD,2022-09-07 04:00:00,15.73165482,0.0002416,53.2164,182.4483,16.8303,168.0246,0.00047577,0.00066588,0.0,0 STARLINK-4169,1 53280U 22086AQ  22250.16667824  .00066588  00000-0  47577-3 0  9993,2 53280  53.2164 182.4483 0002416  16.8303 168.0246 15.73165482  7652,6727.994000000002,91.535,351.4840000000001,348.233,0.0
53280.0,STARLINK-4169,PAYLOAD,2022-09-07 14:00:01,15.73233885,0.0002166999999999,53.2163,180.3848,19.9376,6.0675,-0.00014017,-0.00020277,0.0,0 STARLINK-4169,1 53280U 22086AQ  22250.58334491 -.00020277  00000-0 -14017-3 0  9990,2 53280  53.2163 180.3848 0002167  19.9376   6.0675 15.73233885  1306,6727.799,91.531,351.121,348.206,0.0
53280.0,STARLINK-4169,PAYLOAD,2022-09-07 22:00:00,15.73213095,0.0002195,53.2166,178.7356,24.8584,90.1095,0.00018369,0.00025252,0.0,0 STARLINK-4169,1 53280U 22086AQ  22250.91667824  .00025252  00000-0  18369-3 0  9996,2 53280  53.2166 178.7356 0002195  24.8584  90.1095 15.73213095  7779,6727.858,91.532,351.2,348.246,0.0
53280.0,STARLINK-4169,PAYLOAD,2022-09-08 14:00:01,15.73169011,0.00022,53.2172,175.4363,24.6375,268.2673,0.0002401999999999,0.0003318,0.0,0 STARLINK-4169,1 53280U 22086AQ  22251.58334491  .00033180  00000-0  24020-3 0  9991,2 53280  53.2172 175.4363 0002200  24.6375 268.2673 15.73169011  1302,6727.984,91.535,351.329,348.36800000000005,0.0
53280.0,STARLINK-4169,PAYLOAD,2022-09-08 22:00:00,15.7321994,0.0002251,53.2173,173.7874,27.0726,354.7288,7.0484e-05,9.29e-05,0.0,0 STARLINK-4169,1 53280U 22086AQ  22251.91667824  .00009290  00000-0  70484-4 0  9998,2 53280  53.2173 173.7874 0002251  27.0726 354.7288 15.73219940  1304,6727.8380000000025,91.532,351.218,348.189,0.0
53280.0,STARLINK-4169,PAYLOAD,2022-09-09 14:00:01,15.732266699999998,0.0002077,53.2169,170.4878,24.4194,175.2916,9.8011e-05,0.00013172,0.0,0 STARLINK-4169,1 53280U 22086AQ  22252.58334491  .00013172  00000-0  98011-4 0  9993,2 53280  53.2169 170.4878 0002077  24.4194 175.2916 15.73226670  1305,6727.819,91.532,351.082,348.287,0.0
53280.0,STARLINK-4169,PAYLOAD,2022-09-09 22:00:00,15.7324369,0.0002119,53.2171,168.8391,27.6391,261.0379,-0.00029239,-0.00041535,0.0,0 STARLINK-4169,1 53280U 22086AQ  22252.91667824 -.00041535  00000-0 -29239-3 0  9990,2 53280  53.2171 168.8391 0002119  27.6391 261.0379 15.73243690  1308,6727.771,91.531,351.061,348.21,0.0
